61603,ONEWEB-0697,2024,97.1,-1.0,+,86.57,Active,0,LEO,USA,UK,Unknown,Unknown,Unknown,1 61603U 24188K   24333.46394921 -.00000446  00000+0 -58406-4 0  9994,2 61603  86.5632 153.6491 0004293 101.9914 258.1791 14.82968076  7056,14.82968076,0.0004293,LEO
61604,ONEWEB-0698,2024,97.1,-1.0,+,86.58,Active,0,LEO,USA,UK,Unknown,Unknown,Unknown,1 61604U 24188L   24333.44980236 -.00002250  00000+0 -28040-3 0  9998,2 61604  86.5809 153.6593 0006956  88.2694 271.9325 14.83031183  8784,14.83031183,0.0006956,LEO
61605,ONEWEB-0699,2024,99.04,-1.0,+,86.81,Active,0,LEO,USA,UK,Unknown,Unknown,Unknown,1 61605U 24188M   24333.91667824 -.00940464  00000+0 -27808+0 0  9991,2 61605  86.8655 153.9867 0003827  94.6197  98.1393 14.46655580  6950,14.4665558,0.0003827,LEO
61606,ONEWEB-0700,2024,99.11,-1.0,+,86.81,Active,0,LEO,USA,UK,Unknown,Unknown,Unknown,1 61606U 24188N   24333.58334491 -.01102624  00000+0 -32858+0 0  9996,2 61606  86.8669 154.0969 0003241  87.1857 192.1830 14.46266435  4823,14.46266435,0.0003241,LEO
61607,ONEWEB-0701,2024,99.05,-1.0,+,86.81,Active,0,LEO,USA,UK,Unknown,Unknown,Unknown,1 61607U 24188P   24333.58334491 -.01101304  00000+0 -31985+0 0  9991,2 61607  86.8617 154.0881 0005979  79.9617 283.5234 14.47506180  5765,14.4750618,0.0005979,LEO
61608,ONEWEB-0702,2024,97.12,-1.0,+,86.59,Active,0,LEO,USA,UK,Unknown,Unknown,Unknown,1 61608U 24188Q   24333.45553276  .00022713  00000+0  27998-2 0  9997,2 61608  86.5835 153.6686 0007141  88.3659 271.8382 14.82787324  8785,14.82787324,0.0007141,LEO
61609,ONEWEB-0704,2024,99.12,-1.0,+,86.81,Active,0,LEO,USA,UK,Unknown,Unknown,Unknown,1 61609U 24188R   24333.58334491 -.01021951  00000+0 -30772+0 0  9995,2 61609  86.8688 154.1350 0004129 109.3304 102.6435 14.46038962  4821,14.46038962,0.0004129,LEO
61610,ONEWEB-0705,2024,98.93,-1.0,+,86.8,Active,0,LEO,USA,UK,Unknown,Unknown,Unknown,1 61610U 24188S   24333.58334491 -.01076022  00000+0 -30312+0 0  9996,2 61610  86.8510 154.0442 0006467  87.2372  23.6914 14.48893701  4730,14.48893701,0.0006467,LEO
